     3.04           N: GNSS NAV DATA    M: MIXED            RINEX VERSION / TYPE
ssrcrin-15.6.1x                         20250101 140000 UTC PGM / RUN BY / DATE 
    18                                                      LEAP SECONDS        
                                                            END OF HEADER       
E29 2025 01 01 14 00 00-5.848164437339E-05-3.169020601490E-12 0.000000000000E+00
     8.000000000000E+00-1.847187500000E+02 2.804759686642E-09-4.379036921493E-01
    -8.417293429375E-06 3.146819071844E-04 1.188740134239E-05 5.440618886948E+03
     3.096000000000E+05 0.000000000000E+00 3.156959513750E-01 2.793967723846E-08
     9.569346021101E-01 8.293750000000E+01 2.648658209669E+00-5.282005731026E-09
     3.428714248282E-10 2.580000000000E+02 2.347000000000E+03
     3.120000000000E+00 0.000000000000E+00-5.355104804039E-09 0.000000000000E+00
     3.103400000000E+05
E02 2025 01 01 14 00 00 1.867518294603E-04 2.870592652471E-12 0.000000000000E+00
     8.000000000000E+00-2.440625000000E+01 3.391212686192E-09 1.798330097975E+00
    -1.316890120506E-06 5.099801346660E-04 6.517395377159E-06 5.440613821030E+03
     3.096000000000E+05-4.656612873077E-08 2.416750670383E+00 5.029141902924E-08
     9.646363771828E-01 2.012812500000E+02 6.900782249394E-01-5.488800059125E-09
    -6.989576858217E-10 2.580000000000E+02 2.347000000000E+03
     3.120000000000E+00 0.000000000000E+00-3.958120942116E-09 0.000000000000E+00
     3.103400000000E+05
E15 2025 01 01 14 00 00-1.484769163653E-04-2.316369318578E-12 0.000000000000E+00
     8.000000000000E+00 1.824375000000E+02 2.559392323249E-09 7.971390713791E-01
     8.530914783478E-06 4.395600408316E-04 1.657754182816E-07 5.440609418869E+03
     3.096000000000E+05 9.313225746155E-08-1.775969561907E+00-3.539025783539E-08
     9.996372876369E-01 3.555625000000E+02-1.179715465096E+00-5.686308286136E-09
     3.582292073987E-10 2.580000000000E+02 2.347000000000E+03
     3.120000000000E+00 0.000000000000E+00 2.561137080193E-09 0.000000000000E+00
     3.103400000000E+05
S23 2025 01 01 14 12 16 0.000000000000E+00 0.000000000000E+00 3.103510000000E+05
     3.866796400000E+04 0.000000000000E+00 0.000000000000E+00 6.300000000000E+01
     1.681330800000E+04 0.000000000000E+00 0.000000000000E+00 3.276700000000E+04
     0.000000000000E+00 0.000000000000E+00 0.000000000000E+00 1.370000000000E+02
S44 2025 01 01 14 12 16 8.405186235905E-07 0.000000000000E+00 3.103520000000E+05
     7.280793920000E+03 4.881250000000E-03 3.750000000000E-08 6.300000000000E+01
     4.154166080000E+04 3.368750000000E-04-2.750000000000E-07 3.276700000000E+04
    -5.820880000000E+01 1.403280000000E-01 1.250000000000E-07 6.000000000000E+01
E19 2025 01 01 14 00 00 1.170611125417E-03 5.610445441562E-11 0.000000000000E+00
     8.000000000000E+00-1.745937500000E+02 2.624395030873E-09-2.650986382349E+00
    -8.108094334602E-06 1.479784259573E-04 1.174956560135E-05 5.440634510040E+03
     3.096000000000E+05 1.117587089539E-08 3.191214340372E-01 1.676380634308E-08
     9.691160825005E-01 9.006250000000E+01-2.118451961707E+00-5.180930092248E-09
     3.364425856127E-10 5.170000000000E+02 2.347000000000E+03
     3.120000000000E+00 0.000000000000E+00-6.752088665962E-09-6.053596735001E-09
     3.103550000000E+05
E19 2025 01 01 14 00 00 1.170610077679E-03 5.606182185147E-11 0.000000000000E+00
     8.000000000000E+00-1.745937500000E+02 2.624395030873E-09-2.650986382349E+00
    -8.108094334602E-06 1.479784259573E-04 1.174956560135E-05 5.440634510040E+03
     3.096000000000E+05 1.117587089539E-08 3.191214340372E-01 1.676380634308E-08
     9.691160825005E-01 9.006250000000E+01-2.118451961707E+00-5.180930092248E-09
     3.364425856127E-10 2.580000000000E+02 2.347000000000E+03
     3.120000000000E+00 0.000000000000E+00-6.752088665962E-09 0.000000000000E+00
     3.103900000000E+05
S36 2025 01 01 14 13 04 0.000000000000E+00 0.000000000000E+00 3.103910000000E+05
     4.200368800000E+04 0.000000000000E+00 0.000000000000E+00 6.300000000000E+01
     3.674846960000E+03 0.000000000000E+00 0.000000000000E+00 3.276700000000E+04
     0.000000000000E+00 0.000000000000E+00 0.000000000000E+00 2.310000000000E+02
C38 2025 01 01 14 00 00 2.004036214203E-04 2.006395050103E-12 0.000000000000E+00
     1.000000000000E+00-4.211406250000E+02 1.195406936354E-09 2.884433733614E+00
    -1.350231468678E-05 2.302560489625E-03-1.497846096754E-05 6.492948257446E+03
     3.096000000000E+05-3.771856427193E-08-9.553432544526E-01-1.224689185619E-07
     1.010907408100E+00 7.161718750000E+02-2.435064696047E+00-2.658325015621E-09
    -2.935836575092E-10 0.000000000000E+00 9.910000000000E+02 0.000000000000E+00
     2.000000000000E+00 0.000000000000E+00 3.000000000000E-09 3.000000000000E-09
     3.103980000000E+05 1.000000000000E+00
S27 2025 01 01 14 14 24 4.842877388000E-07 3.637978807092E-11 3.104380000000E+05
     2.407998280000E+04 2.004375000000E-03 3.500000000000E-07 3.100000000000E+01
     3.461490680000E+04 1.998750000000E-03-2.375000000000E-07 4.096000000000E+03
    -5.477620000000E+02 9.308000000000E-03 2.875000000000E-06 1.980000000000E+02
S28 2025 01 01 14 14 24 1.378357410431E-07-1.637090463191E-11 3.104380000000E+05
     5.081987520000E+03 2.145000000000E-03 1.500000000000E-07 6.300000000000E+01
     4.187242288000E+04 6.531250000000E-04-8.750000000000E-08 3.276700000000E+04
     2.331800000000E+01-4.400000000000E-05-1.250000000000E-07 1.980000000000E+02
S21 2025 01 01 14 14 08 0.000000000000E+00 0.000000000000E+00 3.104620000000E+05
     4.200468400000E+04 0.000000000000E+00 0.000000000000E+00 6.300000000000E+01
    -3.674932960000E+03 0.000000000000E+00 0.000000000000E+00 3.276700000000E+04
     0.000000000000E+00 0.000000000000E+00 0.000000000000E+00 1.610000000000E+02
S44 2025 01 01 14 14 24 8.405186235905E-07 0.000000000000E+00 3.104720000000E+05
     7.281419360000E+03 4.890000000000E-03 2.500000000000E-08 6.300000000000E+01
     4.154169936000E+04 2.656250000000E-04-2.750000000000E-07 3.276700000000E+04
    -4.024440000000E+01 1.403600000000E-01 1.250000000000E-07 6.000000000000E+01
S23 2025 01 01 14 14 24 0.000000000000E+00 0.000000000000E+00 3.104760000000E+05
     3.866796400000E+04 0.000000000000E+00 0.000000000000E+00 6.300000000000E+01
     1.681330800000E+04 0.000000000000E+00 0.000000000000E+00 3.276700000000E+04
     0.000000000000E+00 0.000000000000E+00 0.000000000000E+00 1.380000000000E+02
